NORAD_CAT_ID,OBJECT_NAME,OBJECT_TYPE,EPOCH,MEAN_MOTION,ECCENTRICITY,INCLINATION,RA_OF_ASC_NODE,ARG_OF_PERICENTER,MEAN_ANOMALY,BSTAR,MEAN_MOTION_DOT,MEAN_MOTION_DDOT,TLE_LINE0,TLE_LINE1,TLE_LINE2,SEMIMAJOR_AXIS,PERIOD,APOGEE,PERIGEE,DECAYED
54083.0,STARLINK-5178,PAYLOAD,2024-05-16 02:14:49,15.08844715,0.0001316,53.218,68.6916,87.0879,273.0264,4.1785e-05,3.77e-06,0.0,0 STARLINK-5178,1 54083U 22136AJ  24137.09363126  .00000377  00000-0  41785-4 0  9997,2 54083  53.2180  68.6916 0001316  87.0879 273.0264 15.08844715 87436,6917.866,95.437,540.641,538.821,0.0
54083.0,STARLINK-5178,PAYLOAD,2024-05-16 19:44:04,15.08843938,0.0001301,53.2182,65.4215,78.1008,282.013,0.00028563,4.261e-05,0.0,0 STARLINK-5178,1 54083U 22136AJ  24137.82227325  .00004261  00000-0  28563-3 0  9992,2 54083  53.2182  65.4215 0001301  78.1008 282.0130 15.08843938 87061,6917.868,95.437,540.633,538.833,0.0
54083.0,STARLINK-5178,PAYLOAD,2024-05-17 11:37:54,15.08863282,0.0001221,53.2185,62.4482,93.4468,266.6664,0.00045047,6.893e-05,0.0,0 STARLINK-5178,1 54083U 22136AJ  24138.48465999  .00006893  00000-0  45047-3 0  9995,2 54083  53.2185  62.4482 0001221  93.4468 266.6664 15.08863282 87646,6917.809,95.436,540.519,538.83,0.0
54083.0,STARLINK-5178,PAYLOAD,2024-05-17 19:34:52,15.08806229,0.0001421,53.218,60.9604,70.3868,289.7278,-0.00052726,-8.662e-05,0.0,0 STARLINK-5178,1 54083U 22136AJ  24138.81588642 -.00008662  00000-0 -52726-3 0  9993,2 54083  53.2180  60.9604 0001421  70.3868 289.7278 15.08806229 87690,6917.984,95.44,540.832,538.866,0.0
54083.0,STARLINK-5178,PAYLOAD,2024-05-17 22:45:38,15.08814394,0.0001494,53.2183,60.3692,87.664,272.4523,-0.00036328,-6.061e-05,0.0,0 STARLINK-5178,1 54083U 22136AJ  24138.94836462 -.00006061  00000-0 -36328-3 0  9994,2 54083  53.2183  60.3692 0001494  87.6640 272.4523 15.08814394 87237,6917.959,95.439,540.857,538.79,0.0
54083.0,STARLINK-5178,PAYLOAD,2024-05-18 05:07:10,15.08835604,0.0001194,53.2161,59.1764,72.5748,287.5374,0.00011217,1.498e-05,0.0,0 STARLINK-5178,1 54083U 22136AJ  24139.21331971  .00001498  00000-0  11217-3 0  9997,2 54083  53.2161  59.1764 0001194  72.5748 287.5374 15.08835604 87753,6917.894,95.438,540.585,538.933,0.0
54083.0,STARLINK-5178,PAYLOAD,2024-05-18 11:28:42,15.08861528,8.9e-05,53.2175,57.9865,39.8082,320.2975,0.00063304,9.807e-05,0.0,0 STARLINK-5178,1 54083U 22136AJ  24139.47826809  .00009807  00000-0  63304-3 0  9990,2 54083  53.2175  57.9865 0000890  39.8082 320.2975 15.08861528 87795,6917.815,95.436,540.295,539.064,0.0
54083.0,STARLINK-5178,PAYLOAD,2024-05-18 22:36:25,15.08824983,0.0001663,53.2164,55.905,69.0066,291.1104,-0.00010822,-2.009e-05,0.0,0 STARLINK-5178,1 54083U 22136AJ  24139.94196610 -.00002009  00000-0 -10822-3 0  9998,2 54083  53.2164  55.9050 0001663  69.0066 291.1104 15.08824983 87382,6917.926,95.439,540.942,538.641,0.0
54083.0,STARLINK-5178,PAYLOAD,2024-05-19 03:22:35,15.08842906,0.0001569,53.2186,55.0134,86.7268,273.3904,0.00033541,5.054e-05,0.0,0 STARLINK-5178,1 54083U 22136AJ  24140.14068303  .00005054  00000-0  33541-3 0  9993,2 54083  53.2186  55.0134 0001569  86.7268 273.3904 15.08842906 87896,6917.872,95.437,540.822,538.651,0.0
54083.0,STARLINK-5178,PAYLOAD,2024-05-19 17:41:03,15.08834425,0.0001373,53.2171,52.3379,113.7985,246.3151,0.00012766,1.744e-05,0.0,0 STARLINK-5178,1 54083U 22136AJ  24140.73684653  .00001744  00000-0  12766-3 0  9998,2 54083  53.2171  52.3379 0001373 113.7985 246.3151 15.08834425 87982,6917.897,95.438,540.712,538.813,0.0
54083.0,STARLINK-5178,PAYLOAD,2024-05-20 03:13:22,15.08834134,0.0001363,53.2176,50.5518,110.1878,249.9261,0.00018088,2.592e-05,0.0,0 STARLINK-5178,1 54083U 22136AJ  24141.13429024  .00002592  00000-0  18088-3 0  9997,2 54083  53.2176  50.5518 0001363 110.1878 249.9261 15.08834134 87565,6917.898,95.438,540.706,538.82,0.0
54083.0,STARLINK-5178,PAYLOAD,2024-05-21 01:28:46,15.08841497,0.0001357,53.2179,46.39,121.1573,238.9552,0.000217,3.167e-05,0.0,0 STARLINK-5178,1 54083U 22136AJ  24142.06165166  .00003167  00000-0  21700-3 0  9998,2 54083  53.2179  46.3900 0001357 121.1573 238.9552 15.08841497 88183,6917.876,95.437,540.68,538.802,0.0
54083.0,STARLINK-5178,PAYLOAD,2024-05-21 22:08:47,15.08846925,0.000128,53.2182,42.5246,114.3345,245.7781,0.00027993,4.171e-05,0.0,0 STARLINK-5178,1 54083U 22136AJ  24142.92277055  .00004171  00000-0  27993-3 0  9990,2 54083  53.2182  42.5246 0001280 114.3345 245.7781 15.08846925 87836,6917.859,95.437,540.61,538.839,0.0
54083.0,STARLINK-5178,PAYLOAD,2024-05-22 02:54:56,15.08850145,0.0001293,53.2182,41.6321,122.3418,237.7699,0.00030864,4.629e-05,0.0,0 STARLINK-5178,1 54083U 22136AJ  24143.12148823  .00004629  00000-0  30864-3 0  9992,2 54083  53.2182  41.6321 0001293 122.3418 237.7699 15.08850145 88349,6917.849,95.437,540.609,538.82,0.0
54083.0,STARLINK-5178,PAYLOAD,2024-05-22 20:24:11,15.08843547,0.0001405,53.2181,38.3566,137.4874,222.6227,5.3039e-05,5.56e-06,0.0,0 STARLINK-5178,1 54083U 22136AJ  24143.85012811  .00000556  00000-0  53039-4 0  9994,2 54083  53.2181  38.3566 0001405 137.4874 222.6227 15.08843547 88450,6917.87,95.437,540.707,538.763,0.0
54083.0,STARLINK-5178,PAYLOAD,2024-05-22 21:59:34,15.08842671,0.0001374,53.2178,38.0613,139.9418,220.1675,4.3691e-05,4.08e-06,0.0,0 STARLINK-5178,1 54083U 22136AJ  24143.91636861  .00000408  00000-0  43691-4 0  9997,2 54083  53.2178  38.0613 0001374 139.9418 220.1675 15.08842671 87986,6917.872,95.437,540.688,538.787,0.0
54083.0,STARLINK-5178,PAYLOAD,2024-05-23 02:45:43,15.08840883,0.0001229,53.2184,37.1726,134.5655,225.5438,2.0062e-05,3.1e-07,0.0,0 STARLINK-5178,1 54083U 22136AJ  24144.11508981  .00000031  00000-0  20062-4 0  9990,2 54083  53.2184  37.1726 0001229 134.5655 225.5438 15.08840883 88015,6917.878,95.437,540.593,538.892,0.0
54083.0,STARLINK-5178,PAYLOAD,2024-05-23 20:14:58,15.08842672,0.0001343,53.2197,33.8995,138.1395,221.97,3.6534e-05,2.94e-06,0.0,0 STARLINK-5178,1 54083U 22136AJ  24144.84372888  .00000294  00000-0  36534-4 0  9997,2 54083  53.2197  33.8995 0001343 138.1395 221.9700 15.08842672 88120,6917.872,95.437,540.666,538.808,0.0
54083.0,STARLINK-5178,PAYLOAD,2024-05-24 02:36:30,15.08845753,0.0001226,53.2195,32.7106,128.5974,231.5128,5.1147e-05,5.26e-06,0.0,0 STARLINK-5178,1 54083U 22136AJ  24145.10868592  .00000526  00000-0  51147-4 0  9994,2 54083  53.2195  32.7106 0001226 128.5974 231.5128 15.08845753 88647,6917.863,95.437,540.576,538.88,0.0
54083.0,STARLINK-5178,PAYLOAD,2024-05-24 21:41:09,15.08830789,0.0001061,53.2189,29.1423,123.0206,237.0889,9.8712e-06,-1.31e-06,0.0,0 STARLINK-5178,1 54083U 22136AJ  24145.90357668 -.00000131  00000-0  98712-5 0  9992,2 54083  53.2189  29.1423 0001061 123.0206 237.0889 15.08830789 88768,6917.909,95.438,540.508,539.04,0.0
54083.0,STARLINK-5178,PAYLOAD,2024-05-24 23:16:32,15.08831013,6.83e-05,53.2183,28.8499,102.9256,257.1813,-2.3812e-05,-6.66e-06,0.0,0 STARLINK-5178,1 54083U 22136AJ  24145.96981873 -.00000666  00000-0 -23812-4 0  9991,2 54083  53.2183  28.8499 0000683 102.9256 257.1813 15.08831013 88290,6917.908,95.438,540.245,539.3,0.0
54083.0,STARLINK-5178,PAYLOAD,2024-05-25 08:48:50,15.08837115,0.0001448,53.2191,27.0747,140.2584,219.8514,5.8672e-05,6.46e-06,0.0,0 STARLINK-5178,1 54083U 22136AJ  24146.36725431  .00000646  00000-0  58672-4 0  9990,2 54083  53.2191  27.0747 0001448 140.2584 219.8514 15.08837115 88837,6917.889,95.438,540.756,538.752,0.0
54083.0,STARLINK-5178,PAYLOAD,2024-05-25 23:07:21,15.088122,0.0001432,53.2198,24.3988,141.1099,218.9996,-0.00022384,-3.846e-05,0.0,0 STARLINK-5178,1 54083U 22136AJ  24146.96343969 -.00003846  00000-0 -22384-3 0  9995,2 54083  53.2198  24.3988 0001432 141.1099 218.9996 15.08812200 88927,6917.965,95.439,540.821,538.84,0.0
54083.0,STARLINK-5178,PAYLOAD,2024-05-26 21:22:43,15.08809387,7.13e-05,53.2195,20.2386,109.6136,250.4933,0.00053312,8.2e-05,0.0,0 STARLINK-5178,1 54083U 22136AJ  24147.89078077  .00008200  00000-0  53312-3 0  9995,2 54083  53.2195  20.2386 0000713 109.6136 250.4933 15.08809387 89063,6917.974,95.439,540.332,539.346,0.0
54083.0,STARLINK-5178,PAYLOAD,2024-05-27 00:33:27,15.08889331,0.0001104,53.2182,19.642,64.4787,295.6319,-0.00036529,-6.105e-05,0.0,0 STARLINK-5178,1 54083U 22136AJ  24148.02323510 -.00006105  00000-0 -36529-3 0  9991,2 54083  53.2182  19.6420 0001104  64.4787 295.6319 15.08889331 89083,6917.73,95.434,540.358,538.831,0.0
54083.0,STARLINK-5178,PAYLOAD,2024-05-27 14:51:57,15.08840513,0.0001026,53.2186,16.9564,118.7437,241.3659,6.5597e-05,7.56e-06,0.0,0 STARLINK-5178,1 54083U 22136AJ  24148.61941582  .00000756  00000-0  65597-4 0  9993,2 54083  53.2186  16.9564 0001026 118.7437 241.3659 15.08840513 88694,6917.879,95.438,540.454,539.034,0.0
54083.0,STARLINK-5178,PAYLOAD,2024-05-27 21:13:31,15.08828893,9.95e-05,53.2192,15.7603,105.3719,254.7383,1.3264e-05,-7.7e-07,0.0,0 STARLINK-5178,1 54083U 22136AJ  24148.88438663 -.00000077  00000-0  13264-4 0  9994,2 54083  53.2192  15.7603 0000995 105.3719 254.7383 15.08828893 89219,6917.914,95.438,540.468,539.091,0.0
54083.0,STARLINK-5178,PAYLOAD,2024-05-27 22:48:54,15.08828431,8.94e-05,53.2184,15.4631,108.029,252.0799,-4.0612e-05,-9.34e-06,0.0,0 STARLINK-5178,1 54083U 22136AJ  24148.95062868 -.00000934  00000-0 -40612-4 0  9992,2 54083  53.2184  15.4631 0000894 108.0290 252.0799 15.08828431 88747,6917.916,95.438,540.399,539.162,0.0
54083.0,STARLINK-5178,PAYLOAD,2024-05-28 08:21:13,15.08825103,8.93e-05,53.2188,13.6805,95.9355,264.1739,-7.1087e-05,-1.418e-05,0.0,0 STARLINK-5178,1 54083U 22136AJ  24149.34807544 -.00001418  00000-0 -71087-4 0  9992,2 54083  53.2188  13.6805 0000893  95.9355 264.1739 15.08825103 89280,6917.926,95.438,540.409,539.173,0.0
54083.0,STARLINK-5178,PAYLOAD,2024-05-28 21:04:17,15.08845151,8.15e-05,53.2179,11.3033,82.5939,277.5145,1.8496e-05,7e-08,0.0,0 STARLINK-5178,1 54083U 22136AJ  24149.87797964  .00000007  00000-0  18496-4 0  9990,2 54083  53.2179  11.3033 0000815  82.5939 277.5145 15.08845151 89365,6917.865,95.437,540.293,539.166,0.0
